DELTA 2 R/B(1)          
1 20453U 90008B   26142.44835122  .00049322  00000+0  42339-3 0  9998
2 20453  35.6022  47.3321 0071253 233.3979 126.0189 15.64885556937669
COSMOS 2058             
1 20465U 90010A   26142.52281595  .00002054  00000+0  11835-3 0  9990
2 20465  82.4685 334.6675 0010761  81.0214 279.2234 15.11843801953397
SL-14 R/B               
1 20466U 90010B   26142.40449086  .00000227  00000+0  24507-4 0  9990
2 20466  82.5033 198.1568 0021139  59.5464 300.7835 14.83628421939419
SL-14 R/B               
1 20511U 90018B   26142.49310323  .00000236  00000+0  26622-4 0  9999
2 20511  82.5199 154.1247 0015548 204.0566 155.9924 14.82197783933511
HST                     
1 20580U 90037B   26142.64923016  .00005210  00000+0  16433-3 0  9997
2 20580  28.4740 255.0753 0001441 208.0715 151.9803 15.30452947784659
SL-16 R/B               
1 20625U 90046B   26142.56992993 -.00000289  00000+0 -12436-3 0  9990
2 20625  70.9968 142.7498 0014915 201.5346 158.5151 14.15021112858849
COSMOS 2084             
1 20663U 90055A   26142.56521756  .00001375  00000+0  10768-3 0  9998
2 20663  62.7888  83.5333 0006416 235.7895 124.2598 15.05991978947442
SL-6 R/B(2)             
1 20666U 90055D   26142.58389274  .00001129  00000+0  95168-4 0  9995
2 20666  62.7830   2.4958 0036552   1.4558 358.6641 15.03899994949305
SL-8 R/B                
1 20775U 90078B   26142.37206475  .00014371  00000+0  40751-3 0  9999
2 20775  82.9023 184.9492 0354746 125.2733 238.2228 14.91411706820276
SL-8 R/B                
1 21088U 91006B   26142.66330066 -.00000017  00000+0 -32919-4 0  9997
2 21088  82.9402 115.0219 0022191 184.3203 348.8807 13.77504524774252
OKEAN-3                 
1 21397U 91039A   26142.74505846  .00002471  00000+0  17092-3 0  9993
2 21397  82.5159 265.0495 0015634  79.1752 281.1234 15.05185985876172
COSMOS 2151             
1 21422U 91042A   26142.71724389  .00001110  00000+0  86181-4 0  9993
2 21422  82.4975  12.2607 0012625 162.0968 198.0704 15.00359425874297
SL-14 R/B               
1 21423U 91042B   26142.42676376  .00000249  00000+0  28528-4 0  9997
2 21423  82.4914 151.0541 0017053   4.4086 355.7275 14.81883539863996
ERS-1                   
1 21574U 91050A   26142.51643194  .00000141  00000+0  59933-4 0  9990
2 21574  98.7810 162.5861 0031523 345.4696  14.5582 14.39498600826357
ARIANE 40 R/B           
1 21610U 91050F   26142.60011902  .00000170  00000+0  63412-4 0  9996
2 21610  98.1892 192.0115 0002815 183.7082 176.4088 14.42939403829656
INTERCOSMOS 25          
1 21819U 91086A   26142.60937372  .00000181  00000+0  35075-4 0  9990
2 21819  82.6040 265.2879 1485126 317.5914  31.9196 12.12162704505644
SL-8 R/B                
1 21876U 92008B   26142.69717572  .00000037  00000+0  22475-4 0  9995
2 21876  82.9284 212.7380 0033211 288.5390 242.5249 13.75973101719593
SL-8 R/B                
1 21938U 92020B   26142.61791381  .00000004  00000+0 -12388-4 0  9997
2 21938  82.9288  98.8484 0030494  91.1677  81.8758 13.75546733711295
USA 81                  
1 21949U 92023A   26142.56767887  .00000146  00000+0  46709-4 0  9990
2 21949  85.0065  88.7920 0002378 106.2063 253.9391 14.32389819105368
COSMOS 2219             
1 22219U 92076A   26142.51283543 -.00000264  00000+0 -11383-3 0  9998
2 22219  71.0609 223.7432 0015570  86.3923 273.8980 14.14100940728810
SL-16 R/B               
1 22220U 92076B   26142.67889111  .00000029  00000+0  38197-4 0  9990
2 22220  71.0012  32.5163 0013601 333.4247  57.5437 14.16867841732311
COSMOS 2221             
1 22236U 92080A   26142.46306946  .00000979  00000+0  83916-4 0  9992
2 22236  82.5049 208.4073 0012781 308.2806  51.7265 14.96459528791821
SL-16 R/B               
1 22285U 92093B   26142.58943727  .00000087  00000+0  68855-4 0  9992
2 22285  71.0210 209.1281 0005326 217.0220 143.0536 14.15458238723617
COSMOS 2228             
1 22286U 92094A   26142.69685669  .00001129  00000+0  94297-4 0  9991
2 22286  82.5173 166.4577 0019236  56.4268 303.8788 14.97484868787138
SL-16 R/B               
1 22566U 93016B   26142.49608888 -.00000116  00000+0 -34992-4 0  9996
2 22566  71.0089  60.1664 0011641 221.1735 138.8511 14.15312059712610
COSMOS 2242             
1 22626U 93024A   26142.57797836  .00001043  00000+0  88499-4 0  9992
2 22626  82.5196 196.0412 0017585  60.4684 299.8289 14.96819703791448
SL-16 R/B               
1 22803U 93059B   26142.44571406  .00000186  00000+0  11571-3 0  9999
2 22803  70.9904 215.5873 0014917  99.0792 261.2021 14.17243576689989
ARIANE 40 R/B           
1 22830U 93061H   26142.43869353  .00000119  00000+0  59150-4 0  9994
2 22830  98.4828 209.8292 0011833  69.1775 291.0675 14.32895191704665
COSMOS 2278             
1 23087U 94023A   26142.64516204 -.00000114  00000+0 -34629-4 0  9996
2 23087  71.0542  20.3677 0010912 273.7817  86.2057 14.14384180655260
SL-16 R/B               
1 23088U 94023B   26142.65834372 -.00000238  00000+0 -98197-4 0  9994
2 23088  71.0003 275.5434 0004220 219.7038 140.3776 14.15021794656551
SL-16 R/B               
1 23343U 94074B   26142.53321750  .00000266  00000+0  42248-4 0  9997
2 23343  97.7007 170.3217 0006243 354.5713 165.1065 14.79477115698161
SL-16 R/B               
1 23405U 94077B   26142.61111976  .00000279  00000+0  16714-3 0  9997
2 23405  70.9822 196.9702 0001532 356.5661   3.5451 14.15573447626699
ARIANE 40+ R/B          
1 23561U 95021B   26142.47116292  .00000173  00000+0  69139-4 0  9993
2 23561  98.4418 212.9164 0005461 282.4614  88.2124 14.39817043629867
SL-16 R/B               
1 23705U 95058B   26142.40967206  .00000059  00000+0  54359-4 0  9996
2 23705  71.0232  25.4804 0012543 357.0261   3.0785 14.15508550578283
SL-16 R/B               
1 24298U 96051B   26142.39457750  .00000119  00000+0  91315-4 0  9994
2 24298  70.7636  19.2380 0013451  18.1724 341.9873 14.12436502532054
ORBVIEW 2 (SEASTAR)     
1 24883U 97037A   26142.71902936  .00000140  00000+0  65017-4 0  9990
2 24883  98.8669 309.0354 0002123 172.1660 187.9558 14.35538176519098
SL-16 R/B               
1 25400U 98043G   26142.61324750  .00000025  00000+0  29410-4 0  9994
2 25400  98.8351  96.5549 0010230 154.4710 205.6976 14.26063732449526
SL-16 R/B               
1 25407U 98045B   26142.66693569 -.00000223  00000+0 -88299-4 0  9997
2 25407  71.0124  26.0005 0009717 271.7795  88.2216 14.16199701437572
ISS (ZARYA)             
1 25544U 98067A   26142.51965852  .00007327  00000+0  13945-3 0  9999
2 25544  51.6330  67.1668 0007537  86.3178 273.8672 15.49313075567774
CZ-4B R/B               
1 25732U 99025C   26142.61968691  .00000029  00000+0  34645-4 0  9991
2 25732  98.6502 185.0995 0038025 131.1216  31.3705 14.18278420398647
OKEAN-O                 
1 25860U 99039A   26142.12333990  .00000369  00000+0  55149-4 0  9991
2 25860  97.9331 201.2186 0001999  94.0319 266.1121 14.80430856445257
SL-16 R/B               
1 25861U 99039B   26142.16944531  .00000317  00000+0  46949-4 0  9996
2 25861  97.9852 201.1048 0015263  24.2961 335.8968 14.81815113447742
DELTA 2 R/B             
1 25876U 99041E   26142.55331164  .00000357  00000+0  95810-4 0  9995
2 25876  51.7650   6.1941 0501613 206.2727 151.1952 14.11964199373469
HELIOS 1B               
1 25977U 99064A   26142.69215001  .00000947  00000+0  10979-3 0  9995
2 25977  98.1633  47.0929 0001737 124.3526 235.7854 14.87927158696269
TERRA                   
1 25994U 99068A   26142.68811708  .00000253  00000+0  60457-4 0  9990
2 25994  97.9472 193.2432 0001359 347.6704 122.1865 14.61079574405886
SL-16 R/B               
1 26070U 00006B   26142.70157882  .00000165  00000+0  10805-3 0  9992
2 26070  71.0018 302.2125 0014607  66.3161 293.9493 14.15831382359035
TITAN 4B R/B            
1 26474U 00047B   26142.69278627  .00001604  00000+0  10464-3 0  9994
2 26474  67.9867 192.3257 0044691 313.1847  46.5571 15.10038656404087
ENVISAT                 
1 27386U 02009A   26142.79335490  .00000056  00000+0  31924-4 0  9995
2 27386  98.3822  94.6804 0001249  92.2943 288.3288 14.39057838269831
IDEFIX & ARIANE 42P R/B 
1 27422U 02021B   26142.53979308  .00000145  00000+0  71858-4 0  9993
2 27422  98.5937  80.3022 0011362 336.1366  23.9289 14.31067928254584
AQUA                    
1 27424U 02022A   26142.73212564  .00000519  00000+0  11310-3 0  9993
2 27424  98.4263 111.5098 0001968  67.3467 345.1239 14.62112395279554
CZ-4B R/B               
1 27432U 02024C   26142.65601431  .00000023  00000+0  34461-4 0  9993
2 27432  98.8716 195.6395 0050360 171.6809 355.9363 14.14559690239690
MIDORI II (ADEOS-II)    
1 27597U 02056A   26142.58734647  .00000186  00000+0  90992-4 0  9999
2 27597  98.7865 101.6323 0001927 111.4629 248.6758 14.29333084220858
H-2A R/B                
1 27601U 02056E   26142.63216534  .00000170  00000+0  74280-4 0  9996
2 27601  98.3300 100.2402 0069092 302.0018 231.6041 14.33808575224706
CZ-4B R/B               
1 28059U 03049C   26142.23844211  .00000248  00000+0  68564-4 0  9996
2 28059  98.6897 140.0534 0048304   8.7607 351.4421 14.55079063197295
CZ-2C R/B               
1 28222U 04012C   26142.64377319  .00070519  00000+0  49082-3 0  9995
2 28222  97.7100 215.4358 0009870  40.7980 319.4021 15.74105517215871
SL-16 R/B               
1 28353U 04021B   26142.77572549  .00000311  00000+0  18661-3 0  9998
2 28353  71.0010  77.0166 0007093 281.5901  78.4425 14.14609568133319
CZ-4B R/B               
1 28415U 04035C   26142.56757544  .00006701  00000+0  22835-3 0  9996
2 28415  97.3388 175.9361 0032869  68.0108 292.4620 15.30182013191205
CZ-2C R/B               
1 28480U 04046B   26142.24840238  .00000075  00000+0  43756-4 0  9992
2 28480  98.1960  52.6471 0138242 297.6380  61.0825 14.27019111118994
ARIANE 5 R/B            
1 28499U 04049H   26142.46560010  .00000629  00000+0  75428-4 0  9992
2 28499  98.2707 313.7287 0085205 111.7047 249.3265 14.85402090156746
